[
    {
        "Altitude(m)": 703817.1971042199,
        "Argument of Periapsis(deg)": 0.009112096949301655,
        "Eccentricity": 0.0,
        "Inclination(deg)": 45.0,
        "Latitude(deg)": 27.038306414986362,
        "Longitude(deg)": 113.88146976469211,
        "Mean Anomaly(deg)": 140.13567331798467,
        "RAAN(deg)": 64.99139844683344,
        "Satellite Name": "Constellation 1 294",
        "Satellite Number": 294,
        "Semi-Major Axis(m)": 7083131.272910544,
        "Time(s)": 152
    },
    {
        "Altitude(m)": 703811.9518128419,
        "Argument of Periapsis(deg)": 0.009172044955547059,
        "Eccentricity": 0.0,
        "Inclination(deg)": 45.0,
        "Latitude(deg)": 27.001122626879013,
        "Longitude(deg)": 113.93130900514865,
        "Mean Anomaly(deg)": 140.19637445823457,
        "RAAN(deg)": 64.99134185766786,
        "Satellite Name": "Constellation 1 294",
        "Satellite Number": 294,
        "Semi-Major Axis(m)": 7083131.272910544,
        "Time(s)": 153
    },
    {
        "Altitude(m)": 703806.7140506705,
        "Argument of Periapsis(deg)": 0.009231992961792466,
        "Eccentricity": 0.0,
        "Inclination(deg)": 45.0,
        "Latitude(deg)": 26.963918009515137,
        "Longitude(deg)": 113.98111277275116,
        "Mean Anomaly(deg)": 140.25707559848445,
        "RAAN(deg)": 64.9912852685023,
        "Satellite Name": "Constellation 1 294",
        "Satellite Number": 294,
        "Semi-Major Axis(m)": 7083131.272910544,
        "Time(s)": 154
    },
    {
        "Altitude(m)": 703801.4838559676,
        "Argument of Periapsis(deg)": 0.009291940968037872,
        "Eccentricity": 0.0,
        "Inclination(deg)": 45.0,
        "Latitude(deg)": 26.92669260941904,
        "Longitude(deg)": 114.03088112795051,
        "Mean Anomaly(deg)": 140.31777673873438,
        "RAAN(deg)": 64.99122867933674,
        "Satellite Name": "Constellation 1 294",
        "Satellite Number": 294,
        "Semi-Major Axis(m)": 7083131.272910544,
        "Time(s)": 155
    },
    {
        "Altitude(m)": 703796.2612669809,
        "Argument of Periapsis(deg)": 0.009351888974283276,
        "Eccentricity": 0.0,
        "Inclination(deg)": 45.0,
        "Latitude(deg)": 26.889446473047403,
        "Longitude(deg)": 114.08061396311327,
        "Mean Anomaly(deg)": 140.37847787898423,
        "RAAN(deg)": 64.99117209017116,
        "Satellite Name": "Constellation 1 294",
        "Satellite Number": 294,
        "Semi-Major Axis(m)": 7083131.272910544,
        "Time(s)": 156
    },
    {
        "Altitude(m)": 703791.0463219212,
        "Argument of Periapsis(deg)": 0.00941183698052868,
        "Eccentricity": 0.0,
        "Inclination(deg)": 45.0,
        "Latitude(deg)": 26.85217964678871,
        "Longitude(deg)": 114.13031167491006,
        "Mean Anomaly(deg)": 140.43917901923416,
        "RAAN(deg)": 64.9911155010056,
        "Satellite Name": "Constellation 1 294",
        "Satellite Number": 294,
        "Semi-Major Axis(m)": 7083131.272910544,
        "Time(s)": 157
    },
    {
        "Altitude(m)": 703785.839058996,
        "Argument of Periapsis(deg)": 0.009471784986774088,
        "Eccentricity": 0.0,
        "Inclination(deg)": 45.0,
        "Latitude(deg)": 26.814892176964477,
        "Longitude(deg)": 114.17997415573164,
        "Mean Anomaly(deg)": 140.49988015948404,
        "RAAN(deg)": 64.99105891184001,
        "Satellite Name": "Constellation 1 294",
        "Satellite Number": 294,
        "Semi-Major Axis(m)": 7083131.272910544,
        "Time(s)": 158
    },
    {
        "Altitude(m)": 703780.6395163807,
        "Argument of Periapsis(deg)": 0.009531732993019492,
        "Eccentricity": 0.0,
        "Inclination(deg)": 45.0,
        "Latitude(deg)": 26.777584109828357,
        "Longitude(deg)": 114.22960146607777,
        "Mean Anomaly(deg)": 140.56058129973394,
        "RAAN(deg)": 64.99100232267445,
        "Satellite Name": "Constellation 1 294",
        "Satellite Number": 294,
        "Semi-Major Axis(m)": 7083131.272910544,
        "Time(s)": 159
    },
    {
        "Altitude(m)": 703775.4477322297,
        "Argument of Periapsis(deg)": 0.009591680999264898,
        "Eccentricity": 0.0,
        "Inclination(deg)": 45.0,
        "Latitude(deg)": 26.740255491566607,
        "Longitude(deg)": 114.27919366645934,
        "Mean Anomaly(deg)": 140.62128243998384,
        "RAAN(deg)": 64.99094573350888,
        "Satellite Name": "Constellation 1 294",
        "Satellite Number": 294,
        "Semi-Major Axis(m)": 7083131.272910544,
        "Time(s)": 160
    },
    {
        "Altitude(m)": 703770.2637446792,
        "Argument of Periapsis(deg)": 0.009651629005510304,
        "Eccentricity": 0.0,
        "Inclination(deg)": 45.0,
        "Latitude(deg)": 26.702906368298216,
        "Longitude(deg)": 114.32875081739793,
        "Mean Anomaly(deg)": 140.68198358023378,
        "RAAN(deg)": 64.99088914434331,
        "Satellite Name": "Constellation 1 294",
        "Satellite Number": 294,
        "Semi-Major Axis(m)": 7083131.272910544,
        "Time(s)": 161
    },
    {
        "Altitude(m)": 703765.0875918403,
        "Argument of Periapsis(deg)": 0.00971157701175571,
        "Eccentricity": 0.0,
        "Inclination(deg)": 45.0,
        "Latitude(deg)": 26.66553678607485,
        "Longitude(deg)": 114.37827297942547,
        "Mean Anomaly(deg)": 140.74268472048365,
        "RAAN(deg)": 64.99083255517775,
        "Satellite Name": "Constellation 1 294",
        "Satellite Number": 294,
        "Semi-Major Axis(m)": 7083131.272910544,
        "Time(s)": 162
    },
    {
        "Altitude(m)": 703759.9193118063,
        "Argument of Periapsis(deg)": 0.009771525018001118,
        "Eccentricity": 0.0,
        "Inclination(deg)": 45.0,
        "Latitude(deg)": 26.628146790881104,
        "Longitude(deg)": 114.42776004498674,
        "Mean Anomaly(deg)": 140.80338586073356,
        "RAAN(deg)": 64.99077596601218,
        "Satellite Name": "Constellation 1 294",
        "Satellite Number": 294,
        "Semi-Major Axis(m)": 7083131.272910544,
        "Time(s)": 163
    },
    {
        "Altitude(m)": 703754.7589426422,
        "Argument of Periapsis(deg)": 0.00983147302424652,
        "Eccentricity": 0.0,
        "Inclination(deg)": 45.0,
        "Latitude(deg)": 26.590736428634177,
        "Longitude(deg)": 114.47721241082749,
        "Mean Anomaly(deg)": 140.86408700098346,
        "RAAN(deg)": 64.9907193768466,
        "Satellite Name": "Constellation 1 294",
        "Satellite Number": 294,
        "Semi-Major Axis(m)": 7083131.272910544,
        "Time(s)": 164
    },
    {
        "Altitude(m)": 703749.6065223963,
        "Argument of Periapsis(deg)": 0.009891421030491928,
        "Eccentricity": 0.0,
        "Inclination(deg)": 45.0,
        "Latitude(deg)": 26.55330574518466,
        "Longitude(deg)": 114.52662996941103,
        "Mean Anomaly(deg)": 140.92478814123336,
        "RAAN(deg)": 64.99066278768103,
        "Satellite Name": "Constellation 1 294",
        "Satellite Number": 294,
        "Semi-Major Axis(m)": 7083131.272910544,
        "Time(s)": 165
    },
    {
        "Altitude(m)": 703744.4620890876,
        "Argument of Periapsis(deg)": 0.009951369036737332,
        "Eccentricity": 0.0,
        "Inclination(deg)": 45.0,
        "Latitude(deg)": 26.51585478631605,
        "Longitude(deg)": 114.5760127813067,
        "Mean Anomaly(deg)": 140.98548928148324,
        "RAAN(deg)": 64.99060619851547,
        "Satellite Name": "Constellation 1 294",
        "Satellite Number": 294,
        "Semi-Major Axis(m)": 7083131.272910544,
        "Time(s)": 166
    },
    {
        "Altitude(m)": 703739.3256807206,
        "Argument of Periapsis(deg)": 0.010011317042982738,
        "Eccentricity": 0.0,
        "Inclination(deg)": 45.0,
        "Latitude(deg)": 26.478383597744962,
        "Longitude(deg)": 114.6253609070923,
        "Mean Anomaly(deg)": 141.04619042173314,
        "RAAN(deg)": 64.9905496093499,
        "Satellite Name": "Constellation 1 294",
        "Satellite Number": 294,
        "Semi-Major Axis(m)": 7083131.272910544,
        "Time(s)": 167
    },
    {
        "Altitude(m)": 703734.1973352655,
        "Argument of Periapsis(deg)": 0.010071265049228144,
        "Eccentricity": 0.0,
        "Inclination(deg)": 45.0,
        "Latitude(deg)": 26.440892225121406,
        "Longitude(deg)": 114.67467440735342,
        "Mean Anomaly(deg)": 141.10689156198305,
        "RAAN(deg)": 64.99049302018433,
        "Satellite Name": "Constellation 1 294",
        "Satellite Number": 294,
        "Semi-Major Axis(m)": 7083131.272910544,
        "Time(s)": 168
    },
    {
        "Altitude(m)": 703729.0770906821,
        "Argument of Periapsis(deg)": 0.01013121305547355,
        "Eccentricity": 0.0,
        "Inclination(deg)": 45.0,
        "Latitude(deg)": 26.40338071402866,
        "Longitude(deg)": 114.72395334268316,
        "Mean Anomaly(deg)": 141.16759270223295,
        "RAAN(deg)": 64.99043643101876,
        "Satellite Name": "Constellation 1 294",
        "Satellite Number": 294,
        "Semi-Major Axis(m)": 7083131.272910544,
        "Time(s)": 169
    },
    {
        "Altitude(m)": 703723.9649848941,
        "Argument of Periapsis(deg)": 0.010191161061718957,
        "Eccentricity": 0.0,
        "Inclination(deg)": 45.0,
        "Latitude(deg)": 26.36584910998355,
        "Longitude(deg)": 114.77319777368193,
        "Mean Anomaly(deg)": 141.22829384248283,
        "RAAN(deg)": 64.99037984185318,
        "Satellite Name": "Constellation 1 294",
        "Satellite Number": 294,
        "Semi-Major Axis(m)": 7083131.272910544,
        "Time(s)": 170
    }
]